STARLINK-31630          
1 59271U 24050T   26068.56880718 -.00002063  00000+0 -57526-4 0  9991
2 59271  53.1600 168.5079 0001409  92.3163 267.7999 15.30200807110710
STARLINK-33613          
1 63286U 25053X   26068.50771669  .00025374  00000+0  92726-3 0  9992
2 63286  42.9944 242.9737 0001356 287.6156  72.4548 15.27620712 56164
